CCSDS_OMM_VERS = 2.0
CREATION_DATE  = 
ORIGINATOR     = 

OBJECT_NAME    = STARLINK-4512
OBJECT_ID      = 2022-097L
CENTER_NAME    = EARTH
REF_FRAME      = TEME
TIME_SYSTEM    = UTC
MEAN_ELEMENT_THEORY = SGP/SGP4

EPOCH          = 2022-08-29T22:00:00.999936
MEAN_MOTION    = 15.67497458
ECCENTRICITY   = .0001233
INCLINATION    = 53.2175
RA_OF_ASC_NODE = 150.5125
ARG_OF_PERICENTER = 68.8033
MEAN_ANOMALY   = 70.5578

EPHEMERIS_TYPE = 0
CLASSIFICATION_TYPE = U
NORAD_CAT_ID   = 53398
ELEMENT_SET_NO = 999
REV_AT_EPOCH   = 130
BSTAR          = -.11174E-1
MEAN_MOTION_DOT = -.1103935E-1
MEAN_MOTION_DDOT = 0

CCSDS_OMM_VERS = 2.0
CREATION_DATE  = 
ORIGINATOR     = 

OBJECT_NAME    = STARLINK-4528
OBJECT_ID      = 2022-097M
CENTER_NAME    = EARTH
REF_FRAME      = TEME
TIME_SYSTEM    = UTC
MEAN_ELEMENT_THEORY = SGP/SGP4

EPOCH          = 2022-08-29T22:00:00.999936
MEAN_MOTION    = 15.67475551
ECCENTRICITY   = .0001251
INCLINATION    = 53.2175
RA_OF_ASC_NODE = 150.5040
ARG_OF_PERICENTER = 65.9569
MEAN_ANOMALY   = 71.4351

EPHEMERIS_TYPE = 0
CLASSIFICATION_TYPE = U
NORAD_CAT_ID   = 53399
ELEMENT_SET_NO = 999
REV_AT_EPOCH   = 130
BSTAR          = -.11184E-1
MEAN_MOTION_DOT = -.1103936E-1
MEAN_MOTION_DDOT = 0

CCSDS_OMM_VERS = 2.0
CREATION_DATE  = 
ORIGINATOR     = 

OBJECT_NAME    = STARLINK-4520
OBJECT_ID      = 2022-097N
CENTER_NAME    = EARTH
REF_FRAME      = TEME
TIME_SYSTEM    = UTC
MEAN_ELEMENT_THEORY = SGP/SGP4

EPOCH          = 2022-08-29T22:00:00.999936
MEAN_MOTION    = 15.67512081
ECCENTRICITY   = .0001393
INCLINATION    = 53.2176
RA_OF_ASC_NODE = 150.5220
ARG_OF_PERICENTER = 52.3527
MEAN_ANOMALY   = 88.3205

EPHEMERIS_TYPE = 0
CLASSIFICATION_TYPE = U
NORAD_CAT_ID   = 53400
ELEMENT_SET_NO = 999
REV_AT_EPOCH   = 130
BSTAR          = -.11162E-1
MEAN_MOTION_DOT = -.1103531E-1
MEAN_MOTION_DDOT = 0

CCSDS_OMM_VERS = 2.0
CREATION_DATE  = 
ORIGINATOR     = 

OBJECT_NAME    = STARLINK-4525
OBJECT_ID      = 2022-097P
CENTER_NAME    = EARTH
REF_FRAME      = TEME
TIME_SYSTEM    = UTC
MEAN_ELEMENT_THEORY = SGP/SGP4

EPOCH          = 2022-08-30T06:00:00.999648
MEAN_MOTION    = 15.66687519
ECCENTRICITY   = .0001189
INCLINATION    = 53.2173
RA_OF_ASC_NODE = 148.8769
ARG_OF_PERICENTER = 100.8345
MEAN_ANOMALY   = 119.4454

EPHEMERIS_TYPE = 0
CLASSIFICATION_TYPE = U
NORAD_CAT_ID   = 53401
ELEMENT_SET_NO = 999
REV_AT_EPOCH   = 358
BSTAR          = -.11544E-1
MEAN_MOTION_DOT = -.1121229E-1
MEAN_MOTION_DDOT = 0

CCSDS_OMM_VERS = 2.0
CREATION_DATE  = 
ORIGINATOR     = 

OBJECT_NAME    = STARLINK-4499
OBJECT_ID      = 2022-097Q
CENTER_NAME    = EARTH
REF_FRAME      = TEME
TIME_SYSTEM    = UTC
MEAN_ELEMENT_THEORY = SGP/SGP4

EPOCH          = 2022-08-29T22:00:00.999936
MEAN_MOTION    = 15.67519630
ECCENTRICITY   = .000121
INCLINATION    = 53.2176
RA_OF_ASC_NODE = 150.5247
ARG_OF_PERICENTER = 73.5684
MEAN_ANOMALY   = 67.7608

EPHEMERIS_TYPE = 0
CLASSIFICATION_TYPE = U
NORAD_CAT_ID   = 53402
ELEMENT_SET_NO = 999
REV_AT_EPOCH   = 130
BSTAR          = -.11164E-1
MEAN_MOTION_DOT = -.1103941E-1
MEAN_MOTION_DDOT = 0

CCSDS_OMM_VERS = 2.0
CREATION_DATE  = 
ORIGINATOR     = 

OBJECT_NAME    = STARLINK-4507
OBJECT_ID      = 2022-097R
CENTER_NAME    = EARTH
REF_FRAME      = TEME
TIME_SYSTEM    = UTC
MEAN_ELEMENT_THEORY = SGP/SGP4

EPOCH          = 2022-08-30T06:00:00.999648
MEAN_MOTION    = 15.66702051
ECCENTRICITY   = .0001175
INCLINATION    = 53.2173
RA_OF_ASC_NODE = 148.8822
ARG_OF_PERICENTER = 95.5480
MEAN_ANOMALY   = 126.0615

EPHEMERIS_TYPE = 0
CLASSIFICATION_TYPE = U
NORAD_CAT_ID   = 53403
ELEMENT_SET_NO = 999
REV_AT_EPOCH   = 358
BSTAR          = -.11536E-1
MEAN_MOTION_DOT = -.1121121E-1
MEAN_MOTION_DDOT = 0

CCSDS_OMM_VERS = 2.0
CREATION_DATE  = 
ORIGINATOR     = 

OBJECT_NAME    = STARLINK-4509
OBJECT_ID      = 2022-097S
CENTER_NAME    = EARTH
REF_FRAME      = TEME
TIME_SYSTEM    = UTC
MEAN_ELEMENT_THEORY = SGP/SGP4

EPOCH          = 2022-08-30T06:00:00.999648
MEAN_MOTION    = 15.73222657
ECCENTRICITY   = .0001229
INCLINATION    = 53.2189
RA_OF_ASC_NODE = 148.8008
ARG_OF_PERICENTER = 71.3660
MEAN_ANOMALY   = 185.1642

EPHEMERIS_TYPE = 0
CLASSIFICATION_TYPE = U
NORAD_CAT_ID   = 53404
ELEMENT_SET_NO = 999
REV_AT_EPOCH   = 358
BSTAR          = -.20608E-3
MEAN_MOTION_DOT = -.29468E-3
MEAN_MOTION_DDOT = 0

CCSDS_OMM_VERS = 2.0
CREATION_DATE  = 
ORIGINATOR     = 

OBJECT_NAME    = STARLINK-4510
OBJECT_ID      = 2022-097T
CENTER_NAME    = EARTH
REF_FRAME      = TEME
TIME_SYSTEM    = UTC
MEAN_ELEMENT_THEORY = SGP/SGP4

EPOCH          = 2022-08-29T22:00:00.999936
MEAN_MOTION    = 15.67526817
ECCENTRICITY   = .0001313
INCLINATION    = 53.2176
RA_OF_ASC_NODE = 150.5270
ARG_OF_PERICENTER = 59.3639
MEAN_ANOMALY   = 82.6213

EPHEMERIS_TYPE = 0
CLASSIFICATION_TYPE = U
NORAD_CAT_ID   = 53405
ELEMENT_SET_NO = 999
REV_AT_EPOCH   = 130
BSTAR          = -.11158E-1
MEAN_MOTION_DOT = -.1103743E-1
MEAN_MOTION_DDOT = 0

CCSDS_OMM_VERS = 2.0
CREATION_DATE  = 
ORIGINATOR     = 

OBJECT_NAME    = STARLINK-4533
OBJECT_ID      = 2022-097U
CENTER_NAME    = EARTH
REF_FRAME      = TEME
TIME_SYSTEM    = UTC
MEAN_ELEMENT_THEORY = SGP/SGP4

EPOCH          = 2022-08-30T06:00:00.999648
MEAN_MOTION    = 15.73233169
ECCENTRICITY   = .000111
INCLINATION    = 53.2191
RA_OF_ASC_NODE = 148.7940
ARG_OF_PERICENTER = 70.5955
MEAN_ANOMALY   = 189.5160

EPHEMERIS_TYPE = 0
CLASSIFICATION_TYPE = U
NORAD_CAT_ID   = 53406
ELEMENT_SET_NO = 999
REV_AT_EPOCH   = 358
BSTAR          = -.27439E-3
MEAN_MOTION_DOT = -.39004E-3
MEAN_MOTION_DDOT = 0

CCSDS_OMM_VERS = 2.0
CREATION_DATE  = 
ORIGINATOR     = 

OBJECT_NAME    = STARLINK-4537
OBJECT_ID      = 2022-097V
CENTER_NAME    = EARTH
REF_FRAME      = TEME
TIME_SYSTEM    = UTC
MEAN_ELEMENT_THEORY = SGP/SGP4

EPOCH          = 2022-08-30T06:00:00.999648
MEAN_MOTION    = 15.73196342
ECCENTRICITY   = .0001241
INCLINATION    = 53.2197
RA_OF_ASC_NODE = 148.8041
ARG_OF_PERICENTER = 70.2794
MEAN_ANOMALY   = 185.6407

EPHEMERIS_TYPE = 0
CLASSIFICATION_TYPE = U
NORAD_CAT_ID   = 53407
ELEMENT_SET_NO = 999
REV_AT_EPOCH   = 358
BSTAR          = .41588E-3
MEAN_MOTION_DOT = .58141E-3
MEAN_MOTION_DDOT = 0

CCSDS_OMM_VERS = 2.0
CREATION_DATE  = 
ORIGINATOR     = 

OBJECT_NAME    = STARLINK-4491
OBJECT_ID      = 2022-097W
CENTER_NAME    = EARTH
REF_FRAME      = TEME
TIME_SYSTEM    = UTC
MEAN_ELEMENT_THEORY = SGP/SGP4

EPOCH          = 2022-08-30T06:00:00.999648
MEAN_MOTION    = 15.73163766
ECCENTRICITY   = .0001259
INCLINATION    = 53.2197
RA_OF_ASC_NODE = 148.7998
ARG_OF_PERICENTER = 62.8730
MEAN_ANOMALY   = 195.4377

EPHEMERIS_TYPE = 0
CLASSIFICATION_TYPE = U
NORAD_CAT_ID   = 53408
ELEMENT_SET_NO = 999
REV_AT_EPOCH   = 358
BSTAR          = .41622E-3
MEAN_MOTION_DOT = .58107E-3
MEAN_MOTION_DDOT = 0

CCSDS_OMM_VERS = 2.0
CREATION_DATE  = 
ORIGINATOR     = 

OBJECT_NAME    = STARLINK-4490
OBJECT_ID      = 2022-097X
CENTER_NAME    = EARTH
REF_FRAME      = TEME
TIME_SYSTEM    = UTC
MEAN_ELEMENT_THEORY = SGP/SGP4

EPOCH          = 2022-08-29T22:00:00.999936
MEAN_MOTION    = 15.73196409
ECCENTRICITY   = .0001243
INCLINATION    = 53.2193
RA_OF_ASC_NODE = 150.4474
ARG_OF_PERICENTER = 81.5754
MEAN_ANOMALY   = 86.6115

EPHEMERIS_TYPE = 0
CLASSIFICATION_TYPE = U
NORAD_CAT_ID   = 53409
ELEMENT_SET_NO = 999
REV_AT_EPOCH   = 130
BSTAR          = .4295E-4
MEAN_MOTION_DOT = .5411E-4
MEAN_MOTION_DDOT = 0

