STARLINK-4512           
1 53398U 22097L   22241.91667824 -.01103935  00000+0 -11174-1 0  9990
2 53398  53.2175 150.5125 0001233  68.8033  70.5578 15.67497458  1301
STARLINK-4528           
1 53399U 22097M   22241.91667824 -.01103936  00000+0 -11184-1 0  9993
2 53399  53.2175 150.5040 0001251  65.9569  71.4351 15.67475551  1309
STARLINK-4520           
1 53400U 22097N   22241.91667824 -.01103531  00000+0 -11162-1 0  9993
2 53400  53.2176 150.5220 0001393  52.3527  88.3205 15.67512081  1309
STARLINK-4525           
1 53401U 22097P   22242.25001157 -.01121229  00000+0 -11544-1 0  9991
2 53401  53.2173 148.8769 0001189 100.8345 119.4454 15.66687519  3587
STARLINK-4499           
1 53402U 22097Q   22241.91667824 -.01103941  00000+0 -11164-1 0  9992
2 53402  53.2176 150.5247 0001210  73.5684  67.7608 15.67519630  1302
STARLINK-4507           
1 53403U 22097R   22242.25001157 -.01121121  00000+0 -11536-1 0  9995
2 53403  53.2173 148.8822 0001175  95.5480 126.0615 15.66702051  3586
STARLINK-4509           
1 53404U 22097S   22242.25001157 -.00029468  00000+0 -20608-3 0  9998
2 53404  53.2189 148.8008 0001229  71.3660 185.1642 15.73222657  3585
STARLINK-4510           
1 53405U 22097T   22241.91667824 -.01103743  00000+0 -11158-1 0  9998
2 53405  53.2176 150.5270 0001313  59.3639  82.6213 15.67526817  1300
STARLINK-4533           
1 53406U 22097U   22242.25001157 -.00039004  00000+0 -27439-3 0  9996
2 53406  53.2191 148.7940 0001110  70.5955 189.5160 15.73233169  3584
STARLINK-4537           
1 53407U 22097V   22242.25001157  .00058141  00000+0  41588-3 0  9999
2 53407  53.2197 148.8041 0001241  70.2794 185.6407 15.73196342  3589
STARLINK-4491           
1 53408U 22097W   22242.25001157  .00058107  00000+0  41622-3 0  9991
2 53408  53.2197 148.7998 0001259  62.8730 195.4377 15.73163766  3585
STARLINK-4490           
1 53409U 22097X   22241.91667824  .00005411  00000+0  42950-4 0  9999
2 53409  53.2193 150.4474 0001243  81.5754  86.6115 15.73196409  1307
